{"type": "FeatureCollection", "features": [ {"type": "Feature", "properties": {"norad_id": 39574, "name": "GPM-CORE", "group": "resource", "lat": 12.445263011134777, "lon": -155.33773143604668, "alt_km": 437.07259024105133, "timestamp": "2025-12-16T21:38:56.826718+00:00", "meta": {"OBJECT_NAME": "GPM-CORE", "OBJECT_ID": "2014-009C", "EPOCH": "2025-12-16T07:36:13.436352", "MEAN_MOTION": 15.44520878, "ECCENTRICITY": 0.00096249, "INCLINATION": 64.9729, "RA_OF_ASC_NODE": 200.7027, "ARG_OF_PERICENTER": 246.4981, "MEAN_ANOMALY": 113.5148, "EPHEMERIS_TYPE": 0, "CLASSIFICATION_TYPE": "U", "NORAD_CAT_ID": 39574, "ELEMENT_SET_NO": 999, "REV_AT_EPOCH": 66956, "BSTAR": 0.00013139425, "MEAN_MOTION_DOT": 5.885e-05, "MEAN_MOTION_DDOT": 0}, "tle": {"line1": "1 39574U 14009C   25350.31682218  .00005885  00000+0  13139-3 0  9993", "line2": "2 39574  64.9729 200.7027 0009624 246.4981 113.5148 15.44520878669569"}}, "geometry": {"type": "Point", "coordinates": [-155.33773143604668, 12.445263011134777]}}, {"type": "Feature", "properties": {"norad_id": 39634, "name": "SENTINEL-1A", "group": "resource", "lat": 15.801286468453444, "lon": -6.250574247508562, "alt_km": 696.1079446036229, "timestamp": "2025-12-16T21:38:56.826729+00:00", "meta": {"OBJECT_NAME": "SENTINEL-1A", "OBJECT_ID": "2014-016A", "EPOCH": "2025-12-16T06:45:53.125632", "MEAN_MOTION": 14.59200928, "ECCENTRICITY": 0.00012495, "INCLINATION": 98.1806, "RA_OF_ASC_NODE": 355.4715, "ARG_OF_PERICENTER": 83.7447, "MEAN_ANOMALY": 276.3895, "EPHEMERIS_TYPE": 0, "CLASSIFICATION_TYPE": "U", "NORAD_CAT_ID": 39634, "ELEMENT_SET_NO": 999, "REV_AT_EPOCH": 62334, "BSTAR": 5.9434784e-05, "MEAN_MOTION_DOT": 2.34e-06, "MEAN_MOTION_DDOT": 0}, "tle": {"line1": "1 39634U 14016A   25350.28186488  .00000234  00000+0  59435-4 0  9995", "line2": "2 39634  98.1806 355.4715 0001249  83.7447 276.3895 14.59200928623346"}}, "geometry": {"type": "Point", "coordinates": [-6.250574247508562, 15.801286468453444]}}, {"type": "Feature", "properties": {"norad_id": 39731, "name": "KAZEOSAT 1", "group": "resource", "lat": 80.63634110429054, "lon": -54.41776964172632, "alt_km": 743.4515840014265, "timestamp": "2025-12-16T21:38:56.826739+00:00", "meta": {"OBJECT_NAME": "KAZEOSAT 1", "OBJECT_ID": "2014-024A", "EPOCH": "2025-12-16T07:53:30.427296", "MEAN_MOTION": 14.42065049, "ECCENTRICITY": 0.00011272, "INCLINATION": 98.3432, "RA_OF_ASC_NODE": 62.1555, "ARG_OF_PERICENTER": 97.5397, "MEAN_ANOMALY": 262.5921, "EPHEMERIS_TYPE": 0, "CLASSIFICATION_TYPE": "U", "NORAD_CAT_ID": 39731, "ELEMENT_SET_NO": 999, "REV_AT_EPOCH": 61220, "BSTAR": 7.5225353e-05, "MEAN_MOTION_DOT": 2.04e-06, "MEAN_MOTION_DDOT": 0}, "tle": {"line1": "1 39731U 14024A   25350.32882439  .00000204  00000+0  75225-4 0  9998", "line2": "2 39731  98.3432  62.1555 0001127  97.5397 262.5921 14.42065049612202"}}, "geometry": {"type": "Point", "coordinates": [-54.41776964172632, 80.63634110429054]}}, {"type": "Feature", "properties": {"norad_id": 39766, "name": "ALOS-2", "group": "resource", "lat": 1.9600835416908442, "lon": -94.03838385257679, "alt_km": 633.6466910887548, "timestamp": "2025-12-16T21:38:56.826750+00:00", "meta": {"OBJECT_NAME": "ALOS-2", "OBJECT_ID": "2014-029A", "EPOCH": "2025-12-16T07:51:43.796736", "MEAN_MOTION": 14.79470048, "ECCENTRICITY": 0.00013602, "INCLINATION": 97.9224, "RA_OF_ASC_NODE": 85.1224, "ARG_OF_PERICENTER": 96.1156, "MEAN_ANOMALY": 264.0211, "EPHEMERIS_TYPE": 0, "CLASSIFICATION_TYPE": "U", "NORAD_CAT_ID": 39766, "ELEMENT_SET_NO": 999, "REV_AT_EPOCH": 62454, "BSTAR": 0.00020606746, "MEAN_MOTION_DOT": 1.488e-05, "MEAN_MOTION_DDOT": 0}, "tle": {"line1": "1 39766U 14029A   25350.32759024  .00001488  00000+0  20607-3 0  9992", "line2": "2 39766  97.9224  85.1224 0001360  96.1156 264.0211 14.79470048624547"}}, "geometry": {"type": "Point", "coordinates": [-94.03838385257679, 1.9600835416908442]}}, {"type": "Feature", "properties": {"norad_id": 40010, "name": "KAZEOSAT 2", "group": "resource", "lat": 6.5889282741695, "lon": 15.878992971148321, "alt_km": 609.9247051987095, "timestamp": "2025-12-16T21:38:56.826760+00:00", "meta": {"OBJECT_NAME": "KAZEOSAT 2", "OBJECT_ID": "2014-033A", "EPOCH": "2025-12-16T07:56:08.097792", "MEAN_MOTION": 14.85174251, "ECCENTRICITY": 0.00079397, "INCLINATION": 97.5507, "RA_OF_ASC_NODE": 194.4594, "ARG_OF_PERICENTER": 194.099, "MEAN_ANOMALY": 166.0006, "EPHEMERIS_TYPE": 0, "CLASSIFICATION_TYPE": "U", "NORAD_CAT_ID": 40010, "ELEMENT_SET_NO": 999, "REV_AT_EPOCH": 62181, "BSTAR": 9.9670969e-05, "MEAN_MOTION_DOT": 8.04e-06, "MEAN_MOTION_DDOT": 0}, "tle": {"line1": "1 40010U 14033A   25350.33064928  .00000804  00000+0  99671-4 0  9993", "line2": "2 40010  97.5507 194.4594 0007939 194.0990 166.0006 14.85174251621811"}}, "geometry": {"type": "Point", "coordinates": [15.878992971148321, 6.5889282741695]}}, {"type": "Feature", "properties": {"norad_id": 40011, "name": "HODOYOSHI-4", "group": "resource", "lat": -63.072251132573044, "lon": -165.30099637770118, "alt_km": 618.4095205542981, "timestamp": "2025-12-16T21:38:56.826793+00:00", "meta": {"OBJECT_NAME": "HODOYOSHI-4", "OBJECT_ID": "2014-033B", "EPOCH": "2025-12-16T09:01:19.715232", "MEAN_MOTION": 14.87496908, "ECCENTRICITY": 0.00233805, "INCLINATION": 97.5416, "RA_OF_ASC_NODE": 179.0802, "ARG_OF_PERICENTER": 188.1357, "MEAN_ANOMALY": 171.9485, "EPHEMERIS_TYPE": 0, "CLASSIFICATION_TYPE": "U", "NORAD_CAT_ID": 40011, "ELEMENT_SET_NO": 999, "REV_AT_EPOCH": 62162, "BSTAR": 0.00015339416, "MEAN_MOTION_DOT": 1.345e-05, "MEAN_MOTION_DDOT": 0}, "tle": {"line1": "1 40011U 14033B   25350.37592263  .00001345  00000+0  15339-3 0  9995", "line2": "2 40011  97.5416 179.0802 0023380 188.1357 171.9485 14.87496908621624"}}, "geometry": {"type": "Point", "coordinates": [-165.30099637770118, -63.072251132573044]}}, {"type": "Feature", "properties": {"norad_id": 40013, "name": "DEIMOS-2", "group": "resource", "lat": 4.693217926103769, "lon": 47.19281676285123, "alt_km": 590.7879564605455, "timestamp": "2025-12-16T21:38:56.826806+00:00", "meta": {"OBJECT_NAME": "DEIMOS-2", "OBJECT_ID": "2014-033D", "EPOCH": "2025-12-16T07:59:56.732928", "MEAN_MOTION": 14.92986991, "ECCENTRICITY": 9.899e-05, "INCLINATION": 97.6063, "RA_OF_ASC_NODE": 226.0144, "ARG_OF_PERICENTER": 108.187, "MEAN_ANOMALY": 251.9458, "EPHEMERIS_TYPE": 0, "CLASSIFICATION_TYPE": "U", "NORAD_CAT_ID": 40013, "ELEMENT_SET_NO": 999, "REV_AT_EPOCH": 61043, "BSTAR": 0.00016074933, "MEAN_MOTION_DOT": 1.616e-05, "MEAN_MOTION_DDOT": 0}, "tle": {"line1": "1 40013U 14033D   25350.33329552  .00001616  00000+0  16075-3 0  9991", "line2": "2 40013  97.6063 226.0144 0000989 108.1870 251.9458 14.92986991610437"}}, "geometry": {"type": "Point", "coordinates": [47.19281676285123, 4.693217926103769]}}, {"type": "Feature", "properties": {"norad_id": 40015, "name": "HODOYOSHI-3", "group": "resource", "lat": -0.9219835173272265, "lon": -23.567615680567492, "alt_km": 603.7530569109776, "timestamp": "2025-12-16T21:38:56.826817+00:00", "meta": {"OBJECT_NAME": "HODOYOSHI-3", "OBJECT_ID": "2014-033F", "EPOCH": "2025-12-16T07:53:45.097152", "MEAN_MOTION": 14.84820026, "ECCENTRICITY": 0.00320101, "INCLINATION": 97.6196, "RA_OF_ASC_NODE": 156.0079, "ARG_OF_PERICENTER": 235.5971, "MEAN_ANOMALY": 124.2217, "EPHEMERIS_TYPE": 0, "CLASSIFICATION_TYPE": "U", "NORAD_CAT_ID": 40015, "ELEMENT_SET_NO": 999, "REV_AT_EPOCH": 62048, "BSTAR": 0.00016941658, "MEAN_MOTION_DOT": 1.399e-05, "MEAN_MOTION_DDOT": 0}, "tle": {"line1": "1 40015U 14033F   25350.32899418  .00001399  00000+0  16942-3 0  9996", "line2": "2 40015  97.6196 156.0079 0032010 235.5971 124.2217 14.84820026620480"}}, "geometry": {"type": "Point", "coordinates": [-23.567615680567492, -0.9219835173272265]}}, {"type": "Feature", "properties": {"norad_id": 40053, "name": "SPOT 7", "group": "resource", "lat": -79.77885746663691, "lon": -179.2029013298169, "alt_km": 699.2268321406273, "timestamp": "2025-12-16T21:38:56.826827+00:00", "meta": {"OBJECT_NAME": "SPOT 7", "OBJECT_ID": "2014-034A", "EPOCH": "2025-12-16T08:56:15.150912", "MEAN_MOTION": 14.60739396, "ECCENTRICITY": 0.00015533, "INCLINATION": 98.0907, "RA_OF_ASC_NODE": 52.3643, "ARG_OF_PERICENTER": 86.1917, "MEAN_ANOMALY": 273.9462, "EPHEMERIS_TYPE": 0, "CLASSIFICATION_TYPE": "U", "NORAD_CAT_ID": 40053, "ELEMENT_SET_NO": 999, "REV_AT_EPOCH": 61044, "BSTAR": 0.00011868673, "MEAN_MOTION_DOT": 5.33e-06, "MEAN_MOTION_DDOT": 0}, "tle": {"line1": "1 40053U 14034A   25350.37239758  .00000533  00000+0  11869-3 0  9991", "line2": "2 40053  98.0907  52.3643 0001553  86.1917 273.9462 14.60739396610442"}}, "geometry": {"type": "Point", "coordinates": [-179.2029013298169, -79.77885746663691]}}, {"type": "Feature", "properties": {"norad_id": 40072, "name": "SKYSAT-B", "group": "resource", "lat": -56.03302070807267, "lon": 102.21767080789195, "alt_km": 614.0014115137938, "timestamp": "2025-12-16T21:38:56.826838+00:00", "meta": {"OBJECT_NAME": "SKYSAT-B", "OBJECT_ID": "2014-037D", "EPOCH": "2025-12-16T07:40:15.647520", "MEAN_MOTION": 14.8734094, "ECCENTRICITY": 0.0006419, "INCLINATION": 98.3611, "RA_OF_ASC_NODE": 294.2147, "ARG_OF_PERICENTER": 139.7535, "MEAN_ANOMALY": 220.4156, "EPHEMERIS_TYPE": 0, "CLASSIFICATION_TYPE": "U", "NORAD_CAT_ID": 40072, "ELEMENT_SET_NO": 999, "REV_AT_EPOCH": 61877, "BSTAR": 0.00017714779, "MEAN_MOTION_DOT": 1.539e-05, "MEAN_MOTION_DDOT": 0}, "tle": {"line1": "1 40072U 14037D   25350.31962555  .00001539  00000+0  17715-3 0  9990", "line2": "2 40072  98.3611 294.2147 0006419 139.7535 220.4156 14.87340940618774"}}, "geometry": {"type": "Point", "coordinates": [102.21767080789195, -56.03302070807267]}}]}